NORAD_CAT_ID,OBJECT_NAME,OBJECT_TYPE,EPOCH,MEAN_MOTION,ECCENTRICITY,INCLINATION,RA_OF_ASC_NODE,ARG_OF_PERICENTER,MEAN_ANOMALY,BSTAR,MEAN_MOTION_DOT,MEAN_MOTION_DDOT,TLE_LINE0,TLE_LINE1,TLE_LINE2,SEMIMAJOR_AXIS,PERIOD,APOGEE,PERIGEE,DECAYED
53404.0,STARLINK-4509,PAYLOAD,2023-09-13 07:17:53,15.09078739,0.0001391,53.2166,232.0176,94.8438,265.2714,0.0019605,0.00031257,0.0,0 STARLINK-4509,1 53404U 22097S   23256.30409135  .00031257  00000-0  19605-2 0  9990,2 53404  53.2166 232.0176 0001391  94.8438 265.2714 15.09078739 61027,6917.151,95.422,539.978,538.054,0.0
53404.0,STARLINK-4509,PAYLOAD,2023-09-13 12:03:55,15.09151815,0.0001372,53.2165,231.125,74.4983,285.6161,0.0024662,0.00039519,0.0,0 STARLINK-4509,1 53404U 22097S   23256.50272002  .00039519  00000-0  24662-2 0  9991,2 53404  53.2165 231.1250 0001372  74.4983 285.6161 15.09151815 61543,6916.927,95.418,539.741,537.843,0.0
53404.0,STARLINK-4509,PAYLOAD,2023-09-13 15:14:31,15.0924768,0.0001114,53.2167,230.5295,103.9525,256.1592,0.003191,0.00051441,0.0,0 STARLINK-4509,1 53404U 22097S   23256.63509011  .00051441  00000-0  31910-2 0  9990,2 53404  53.2167 230.5295 0001114 103.9525 256.1592 15.09247680 61076,6916.635,95.412,539.27,537.729,0.0
53404.0,STARLINK-4509,PAYLOAD,2023-09-13 21:35:49,15.09369084,0.0001171,53.2164,229.3386,73.9113,286.2008,0.0039003,0.00063255,0.0,0 STARLINK-4509,1 53404U 22097S   23256.89988121  .00063255  00000-0  39003-2 0  9998,2 53404  53.2164 229.3386 0001171  73.9113 286.2008 15.09369084 61600,6916.264,95.404,538.939,537.319,0.0
53404.0,STARLINK-4509,PAYLOAD,2023-09-14 02:21:42,15.09519132,0.0001323,53.2164,228.4453,90.2549,269.8595,0.0049065,0.00080169,0.0,0 STARLINK-4509,1 53404U 22097S   23257.09840440  .00080169  00000-0  49065-2 0  9994,2 53404  53.2164 228.4453 0001323  90.2549 269.8595 15.09519132 61147,6915.805,95.395,538.585,536.755,0.0
53404.0,STARLINK-4509,PAYLOAD,2023-09-14 10:18:09,15.09726835,0.0001492,53.2166,226.9568,70.5184,289.5969,0.0061052,0.00100689,0.0,0 STARLINK-4509,1 53404U 22097S   23257.42928213  .00100689  00000-0  61052-2 0  9996,2 53404  53.2166 226.9568 0001492  70.5184 289.5969 15.09726835 61191,6915.171,95.381,538.068,536.004,0.0
53404.0,STARLINK-4509,PAYLOAD,2023-09-14 11:53:24,15.09798984,0.0001209,53.2164,226.6588,71.281,288.8314,0.0065885,0.00109027,0.0,0 STARLINK-4509,1 53404U 22097S   23257.49542655  .00109027  00000-0  65885-2 0  9998,2 53404  53.2164 226.6588 0001209  71.2810 288.8314 15.09798984 61693,6914.951,95.377,537.652,535.98,0.0
53404.0,STARLINK-4509,PAYLOAD,2023-09-14 22:00:00,15.10467538,0.0001029,53.2147,224.766,101.6143,28.6268,0.00076633,0.00012484,0.0,0 STARLINK-4509,1 53404U 22097S   23257.91667824  .00012484  00000-0  76633-3 0  9995,2 53404  53.2147 224.7660 0001029 101.6143  28.6268 15.10467538 61262,6912.91,95.335,535.486,534.064,0.0
53404.0,STARLINK-4509,PAYLOAD,2023-09-15 14:00:01,15.10485416,0.0001028,53.2145,221.7663,89.0312,68.3163,-0.00080542,-0.00013679,0.0,0 STARLINK-4509,1 53404U 22097S   23258.58334491 -.00013679  00000-0 -80542-3 0  9993,2 53404  53.2145 221.7663 0001028  89.0312  68.3163 15.10485416  5769,6912.856,95.334,535.431,534.01,0.0
53404.0,STARLINK-4509,PAYLOAD,2023-09-16 06:00:00,15.10483655,0.000113,53.2149,218.767,74.8408,109.6586,-0.0027305,-0.0004547,0.0,0 STARLINK-4509,1 53404U 22097S   23259.25001157 -.00045470  00000-0 -27305-2 0  9999,2 53404  53.2149 218.7670 0001130  74.8408 109.6586 15.10483655 61469,6912.861,95.334,535.507,533.945,0.0
53404.0,STARLINK-4509,PAYLOAD,2023-09-16 14:00:01,15.10464849,0.0001071,53.2149,217.2656,75.951,122.0962,-0.000621,-0.00010612,0.0,0 STARLINK-4509,1 53404U 22097S   23259.58334491 -.00010612  00000-0 -62100-3 0  9998,2 53404  53.2149 217.2656 0001071  75.9510 122.0962 15.10464849  5815,6912.918,95.335,535.524,534.043,0.0
53404.0,STARLINK-4509,PAYLOAD,2023-09-16 22:00:00,15.1047463,0.0001196,53.2165,215.7624,73.7651,137.8332,-2.2668e-05,-6.7e-06,0.0,0 STARLINK-4509,1 53404U 22097S   23259.91667824 -.00000670  00000-0 -22668-4 0  9993,2 53404  53.2165 215.7624 0001196  73.7651 137.8332 15.10474630 61569,6912.888,95.334,535.58,533.927,0.0
53404.0,STARLINK-4509,PAYLOAD,2023-09-17 14:00:01,15.10474334,0.0001181,53.2154,212.765,82.2229,156.4819,-0.0003148,-5.529e-05,0.0,0 STARLINK-4509,1 53404U 22097S   23260.58334491 -.00005529  00000-0 -31480-3 0  9998,2 53404  53.2154 212.7650 0001181  82.2229 156.4819 15.10474334  5862,6912.889,95.334,535.571,533.938,0.0
53404.0,STARLINK-4509,PAYLOAD,2023-09-18 01:39:07,15.10486585,0.0001199,53.2171,210.581,69.9794,290.1328,-1.1098e-05,-4.77e-06,0.0,0 STARLINK-4509,1 53404U 22097S   23261.06883216 -.00000477  00000-0 -11098-4 0  9997,2 53404  53.2171 210.5810 0001199  69.9794 290.1328 15.10486585 61744,6912.852,95.334,535.546,533.888,0.0
53404.0,STARLINK-4509,PAYLOAD,2023-09-18 06:24:57,15.10484158,0.000114,53.2172,209.6853,108.6901,251.4215,0.00012609,1.808e-05,0.0,0 STARLINK-4509,1 53404U 22097S   23261.26733188  .00001808  00000-0  12609-3 0  9996,2 53404  53.2172 209.6853 0001140 108.6901 251.4215 15.10484158 62265,6912.859,95.334,535.512,533.936,0.0
53404.0,STARLINK-4509,PAYLOAD,2023-09-18 20:42:31,15.10471707,0.0001224,53.2171,207.0044,89.4016,270.7117,-1.7438e-05,-5.83e-06,0.0,0 STARLINK-4509,1 53404U 22097S   23261.86286023 -.00000583  00000-0 -17438-4 0  9990,2 53404  53.2171 207.0044 0001224  89.4016 270.7117 15.10471707 62355,6912.897,95.334,535.609,533.916,0.0
53404.0,STARLINK-4509,PAYLOAD,2023-09-19 03:03:52,15.10301648,0.0001699,53.2171,205.8147,103.6118,256.5064,-0.0013258,-0.0002219,0.0,0 STARLINK-4509,1 53404U 22097S   23262.12768855 -.00022190  00000-0 -13258-2 0  9990,2 53404  53.2171 205.8147 0001699 103.6118 256.5064 15.10301648 61902,6913.416,95.345,536.456,534.107,0.0
53404.0,STARLINK-4509,PAYLOAD,2023-09-19 07:49:52,15.10198514,0.0001255,53.2171,204.9215,90.4737,269.6399,-0.0020925,-0.00034694,0.0,0 STARLINK-4509,1 53404U 22097S   23262.32630327 -.00034694  00000-0 -20925-2 0  9995,2 53404  53.2171 204.9215 0001255  90.4737 269.6399 15.10198514 61931,6913.731,95.352,536.464,534.728,0.0
53404.0,STARLINK-4509,PAYLOAD,2023-09-20 02:54:10,15.0969682,0.0002885,53.2174,201.3523,139.6928,220.4279,-0.0055939,-0.00090305,0.0,0 STARLINK-4509,1 53404U 22097S   23263.12095609 -.00090305  00000-0 -55939-2 0  9996,2 53404  53.2174 201.3523 0002885 139.6928 220.4279 15.09696820 62052,6915.263,95.383,539.123,535.133,0.0
53404.0,STARLINK-4509,PAYLOAD,2023-09-20 14:00:01,15.08832286,0.0001517,53.2159,199.2751,97.8998,256.9228,-7.6894e-05,-1.511e-05,0.0,0 STARLINK-4509,1 53404U 22097S   23263.58334491 -.00001511  00000-0 -76894-4 0  9997,2 53404  53.2159 199.2751 0001517  97.8998 256.9228 15.08832286 62129,6917.904,95.438,540.818,538.72,0.0
53404.0,STARLINK-4509,PAYLOAD,2023-09-20 22:00:00,15.08850024,0.0001589,53.216,197.779,97.1009,269.2918,-0.00052227,-8.593e-05,0.0,0 STARLINK-4509,1 53404U 22097S   23263.91667824 -.00008593  00000-0 -52227-3 0  9993,2 53404  53.2160 197.7790 0001589  97.1009 269.2918 15.08850024  5728,6917.85,95.437,540.814,538.616,0.0
53404.0,STARLINK-4509,PAYLOAD,2023-09-21 14:00:01,15.08814107,0.0001534,53.2154,194.786,93.1599,296.4273,0.0020161,0.00031921,0.0,0 STARLINK-4509,1 53404U 22097S   23264.58334491  .00031921  00000-0  20161-2 0  9998,2 53404  53.2154 194.7860 0001534  93.1599 296.4273 15.08814107  5825,6917.96,95.439,540.886,538.763,0.0
53404.0,STARLINK-4509,PAYLOAD,2023-09-21 22:00:01,15.08864979,0.0001559,53.2154,193.2902,92.7,308.5204,-0.0014322,-0.00023025,0.0,0 STARLINK-4509,1 53404U 22097S   23264.91668981 -.00023025  00000-0 -14322-2 0  9999,2 53404  53.2154 193.2902 0001559  92.7000 308.5204 15.08864979 62324,6917.804,95.436,540.748,538.591,0.0
53404.0,STARLINK-4509,PAYLOAD,2023-09-22 00:00:02,15.0887136,0.0001572,53.2152,192.9165,89.065,45.0528,-0.0034224,-0.00054391,0.0,0 STARLINK-4509,1 53404U 22097S   23265.00002315 -.00054391  00000-0 -34224-2 0  9996,2 53404  53.2152 192.9165 0001572  89.0650  45.0528 15.08871360  5774,6917.785,95.436,540.737,538.562,0.0
53404.0,STARLINK-4509,PAYLOAD,2023-09-22 14:00:01,15.08814459,0.0001509,53.2148,190.297,89.11,335.2545,0.002721,0.00043252,0.0,0 STARLINK-4509,1 53404U 22097S   23265.58334491  .00043252  00000-0  27210-2 0  9991,2 53404  53.2148 190.2970 0001509  89.1100 335.2545 15.08814459  5819,6917.958,95.439,540.867,538.78,0.0
53404.0,STARLINK-4509,PAYLOAD,2023-09-22 22:00:00,15.08876996,0.0001491,53.2148,188.8012,89.8625,346.0755,-0.0025584,-0.00040816,0.0,0 STARLINK-4509,1 53404U 22097S   23265.91667824 -.00040816  00000-0 -25584-2 0  9994,2 53404  53.2148 188.8012 0001491  89.8625 346.0755 15.08876996 62470,6917.767,95.435,540.664,538.601,0.0
53404.0,STARLINK-4509,PAYLOAD,2023-09-23 14:00:01,15.08804614,0.0001224,53.2145,185.8078,96.2277,2.9233,0.003295,0.00052492,0.0,0 STARLINK-4509,1 53404U 22097S   23266.58334491  .00052492  00000-0  32950-2 0  9995,2 53404  53.2145 185.8078 0001224  96.2277   2.9233 15.08804614  5705,6917.989,95.44,540.7,539.007,0.0
53404.0,STARLINK-4509,PAYLOAD,2023-09-23 22:00:01,15.0888051,0.0001281,53.2146,184.312,90.891,19.8887,-0.0042082,-0.00066714,0.0,0 STARLINK-4509,1 53404U 22097S   23266.91668981 -.00066714  00000-0 -42082-2 0  9997,2 53404  53.2146 184.3120 0001281  90.8910  19.8887 15.08880510 62620,6917.757,95.435,540.508,538.735,0.0
53404.0,STARLINK-4509,PAYLOAD,2023-09-24 03:52:14,15.08845373,0.0001413,53.2172,183.2134,85.6391,274.4763,6.1433e-05,6.9e-06,0.0,0 STARLINK-4509,1 53404U 22097S   23267.16128400  .00000690  00000-0  61433-4 0  9994,2 53404  53.2172 183.2134 0001413  85.6391 274.4763 15.08845373 62668,6917.864,95.437,540.706,538.751,0.0
53404.0,STARLINK-4509,PAYLOAD,2023-09-24 21:21:30,15.08847434,0.000156,53.218,179.9395,79.6148,280.502,-0.00015888,-2.816e-05,0.0,0 STARLINK-4509,1 53404U 22097S   23267.88993175 -.00002816  00000-0 -15888-3 0  9998,2 53404  53.2180 179.9395 0001560  79.6148 280.5020 15.08847434 63265,6917.858,95.437,540.802,538.643,0.0
